{"type": "FeatureCollection", "features": [ {"type": "Feature", "properties": {"norad_id": 34001, "name": "COSMOS 2251 DEB", "group": "cosmos-2251-debris", "lat": 25.300222373722082, "lon": -95.68055379172654, "alt_km": 757.7931856542382, "timestamp": "2025-12-26T08:37:54.972976+00:00", "meta": {"OBJECT_NAME": "COSMOS 2251 DEB", "OBJECT_ID": "1993-036GL", "EPOCH": "2025-12-26T02:24:35.131104", "MEAN_MOTION": 14.37113172, "ECCENTRICITY": 0.00205, "INCLINATION": 74.0384, "RA_OF_ASC_NODE": 257.0206, "ARG_OF_PERICENTER": 335.395, "MEAN_ANOMALY": 150.1562, "EPHEMERIS_TYPE": 0, "CLASSIFICATION_TYPE": "U", "NORAD_CAT_ID": 34001, "ELEMENT_SET_NO": 999, "REV_AT_EPOCH": 88338, "BSTAR": 0.00016243, "MEAN_MOTION_DOT": 4.57e-06, "MEAN_MOTION_DDOT": 0}, "tle": {"line1": "1 34001U 93036GL  25360.10040661  .00000457  00000+0  16243-3 0  9997", "line2": "2 34001  74.0384 257.0206 0020500 335.3950 150.1562 14.37113172883383"}}, "geometry": {"type": "Point", "coordinates": [-95.68055379172654, 25.300222373722082]}}, {"type": "Feature", "properties": {"norad_id": 34003, "name": "COSMOS 2251 DEB", "group": "cosmos-2251-debris", "lat": -19.935666556076587, "lon": 88.16289896381608, "alt_km": 1152.5648258330511, "timestamp": "2025-12-26T08:37:54.972986+00:00", "meta": {"OBJECT_NAME": "COSMOS 2251 DEB", "OBJECT_ID": "1993-036GN", "EPOCH": "2025-12-25T19:31:29.334144", "MEAN_MOTION": 13.84221361, "ECCENTRICITY": 0.02753646, "INCLINATION": 74.0775, "RA_OF_ASC_NODE": 263.1391, "ARG_OF_PERICENTER": 12.2095, "MEAN_ANOMALY": 348.5523, "EPHEMERIS_TYPE": 0, "CLASSIFICATION_TYPE": "U", "NORAD_CAT_ID": 34003, "ELEMENT_SET_NO": 999, "REV_AT_EPOCH": 84606, "BSTAR": 0.00186549, "MEAN_MOTION_DOT": 2.77e-05, "MEAN_MOTION_DDOT": 0}, "tle": {"line1": "1 34003U 93036GN  25359.81353396  .00002770  00000+0  18655-2 0  9995", "line2": "2 34003  74.0775 263.1391 0275364  12.2095 348.5523 13.84221361846068"}}, "geometry": {"type": "Point", "coordinates": [88.16289896381608, -19.935666556076587]}}, {"type": "Feature", "properties": {"norad_id": 34004, "name": "COSMOS 2251 DEB", "group": "cosmos-2251-debris", "lat": 39.823769003498185, "lon": 93.75970464310919, "alt_km": 747.3102135923409, "timestamp": "2025-12-26T08:37:54.972996+00:00", "meta": {"OBJECT_NAME": "COSMOS 2251 DEB", "OBJECT_ID": "1993-036GP", "EPOCH": "2025-12-26T03:01:26.360256", "MEAN_MOTION": 14.4912807, "ECCENTRICITY": 0.0033349, "INCLINATION": 74.0359, "RA_OF_ASC_NODE": 288.0075, "ARG_OF_PERICENTER": 298.5548, "MEAN_ANOMALY": 61.2256, "EPHEMERIS_TYPE": 0, "CLASSIFICATION_TYPE": "U", "NORAD_CAT_ID": 34004, "ELEMENT_SET_NO": 999, "REV_AT_EPOCH": 88224, "BSTAR": 0.0012051, "MEAN_MOTION_DOT": 4.59e-05, "MEAN_MOTION_DDOT": 0}, "tle": {"line1": "1 34004U 93036GP  25360.12599954  .00004590  00000+0  12051-2 0  9990", "line2": "2 34004  74.0359 288.0075 0033349 298.5548  61.2256 14.49128070882246"}}, "geometry": {"type": "Point", "coordinates": [93.75970464310919, 39.823769003498185]}}, {"type": "Feature", "properties": {"norad_id": 34005, "name": "COSMOS 2251 DEB", "group": "cosmos-2251-debris", "lat": -16.50099621142768, "lon": -176.3785174048657, "alt_km": 750.0923919045144, "timestamp": "2025-12-26T08:37:54.973006+00:00", "meta": {"OBJECT_NAME": "COSMOS 2251 DEB", "OBJECT_ID": "1993-036GQ", "EPOCH": "2025-12-25T21:38:28.078368", "MEAN_MOTION": 14.40313295, "ECCENTRICITY": 0.0021229, "INCLINATION": 74.0432, "RA_OF_ASC_NODE": 189.3294, "ARG_OF_PERICENTER": 305.3524, "MEAN_ANOMALY": 183.8555, "EPHEMERIS_TYPE": 0, "CLASSIFICATION_TYPE": "U", "NORAD_CAT_ID": 34005, "ELEMENT_SET_NO": 999, "REV_AT_EPOCH": 88568, "BSTAR": 0.00010367, "MEAN_MOTION_DOT": 3.03e-06, "MEAN_MOTION_DDOT": 0}, "tle": {"line1": "1 34005U 93036GQ  25359.90171387  .00000303  00000+0  10367-3 0  9998", "line2": "2 34005  74.0432 189.3294 0021229 305.3524 183.8555 14.40313295885680"}}, "geometry": {"type": "Point", "coordinates": [-176.3785174048657, -16.50099621142768]}}, {"type": "Feature", "properties": {"norad_id": 34006, "name": "COSMOS 2251 DEB", "group": "cosmos-2251-debris", "lat": 53.83563057490282, "lon": 138.86880917124518, "alt_km": 566.818266694574, "timestamp": "2025-12-26T08:37:54.973016+00:00", "meta": {"OBJECT_NAME": "COSMOS 2251 DEB", "OBJECT_ID": "1993-036GR", "EPOCH": "2025-12-25T18:35:55.863168", "MEAN_MOTION": 14.95648156, "ECCENTRICITY": 0.00117121, "INCLINATION": 74.0532, "RA_OF_ASC_NODE": 117.0187, "ARG_OF_PERICENTER": 46.7358, "MEAN_ANOMALY": 103.407, "EPHEMERIS_TYPE": 0, "CLASSIFICATION_TYPE": "U", "NORAD_CAT_ID": 34006, "ELEMENT_SET_NO": 999, "REV_AT_EPOCH": 88863, "BSTAR": 0.0036326632, "MEAN_MOTION_DOT": 0.00040646, "MEAN_MOTION_DDOT": 0}, "tle": {"line1": "1 34006U 93036GR  25359.77495212  .00040646  00000+0  36327-2 0  9997", "line2": "2 34006  74.0532 117.0187 0011712  46.7358 103.4070 14.95648156888633"}}, "geometry": {"type": "Point", "coordinates": [138.86880917124518, 53.83563057490282]}}, {"type": "Feature", "properties": {"norad_id": 34007, "name": "COSMOS 2251 DEB", "group": "cosmos-2251-debris", "lat": -50.60855467609713, "lon": -59.74785734640108, "alt_km": 709.4492673543682, "timestamp": "2025-12-26T08:37:54.973026+00:00", "meta": {"OBJECT_NAME": "COSMOS 2251 DEB", "OBJECT_ID": "1993-036GS", "EPOCH": "2025-12-25T21:24:12.481632", "MEAN_MOTION": 14.64879021, "ECCENTRICITY": 0.0044258, "INCLINATION": 74.0199, "RA_OF_ASC_NODE": 321.5767, "ARG_OF_PERICENTER": 92.2474, "MEAN_ANOMALY": 268.3763, "EPHEMERIS_TYPE": 0, "CLASSIFICATION_TYPE": "U", "NORAD_CAT_ID": 34007, "ELEMENT_SET_NO": 999, "REV_AT_EPOCH": 89272, "BSTAR": 0.00078061, "MEAN_MOTION_DOT": 4.203e-05, "MEAN_MOTION_DDOT": 0}, "tle": {"line1": "1 34007U 93036GS  25359.89181113  .00004203  00000+0  78061-3 0  9994", "line2": "2 34007  74.0199 321.5767 0044258  92.2474 268.3763 14.64879021892723"}}, "geometry": {"type": "Point", "coordinates": [-59.74785734640108, -50.60855467609713]}}, {"type": "Feature", "properties": {"norad_id": 34008, "name": "COSMOS 2251 DEB", "group": "cosmos-2251-debris", "lat": -70.58186990309697, "lon": 179.92746219490132, "alt_km": 774.5694461285711, "timestamp": "2025-12-26T08:37:54.973037+00:00", "meta": {"OBJECT_NAME": "COSMOS 2251 DEB", "OBJECT_ID": "1993-036GT", "EPOCH": "2025-12-25T21:38:09.384000", "MEAN_MOTION": 14.33155117, "ECCENTRICITY": 0.002466, "INCLINATION": 74.0349, "RA_OF_ASC_NODE": 306.4638, "ARG_OF_PERICENTER": 299.6184, "MEAN_ANOMALY": 116.454, "EPHEMERIS_TYPE": 0, "CLASSIFICATION_TYPE": "U", "NORAD_CAT_ID": 34008, "ELEMENT_SET_NO": 999, "REV_AT_EPOCH": 88153, "BSTAR": 0.00012606, "MEAN_MOTION_DOT": 3.21e-06, "MEAN_MOTION_DDOT": 0}, "tle": {"line1": "1 34008U 93036GT  25359.90149750  .00000321  00000+0  12606-3 0  9998", "line2": "2 34008  74.0349 306.4638 0024660 299.6184 116.4540 14.33155117881538"}}, "geometry": {"type": "Point", "coordinates": [179.92746219490132, -70.58186990309697]}}, {"type": "Feature", "properties": {"norad_id": 34009, "name": "COSMOS 2251 DEB", "group": "cosmos-2251-debris", "lat": -57.822596961125015, "lon": -75.01229821003994, "alt_km": 784.0958644944558, "timestamp": "2025-12-26T08:37:54.973047+00:00", "meta": {"OBJECT_NAME": "COSMOS 2251 DEB", "OBJECT_ID": "1993-036GU", "EPOCH": "2025-12-25T23:10:08.030208", "MEAN_MOTION": 14.33232804, "ECCENTRICITY": 0.002703, "INCLINATION": 74.0378, "RA_OF_ASC_NODE": 312.7665, "ARG_OF_PERICENTER": 18.6472, "MEAN_ANOMALY": 46.4323, "EPHEMERIS_TYPE": 0, "CLASSIFICATION_TYPE": "U", "NORAD_CAT_ID": 34009, "ELEMENT_SET_NO": 999, "REV_AT_EPOCH": 88135, "BSTAR": 0.00015412, "MEAN_MOTION_DOT": 3.99e-06, "MEAN_MOTION_DDOT": 0}, "tle": {"line1": "1 34009U 93036GU  25359.96537072  .00000399  00000+0  15412-3 0  9996", "line2": "2 34009  74.0378 312.7665 0027030  18.6472  46.4323 14.33232804881354"}}, "geometry": {"type": "Point", "coordinates": [-75.01229821003994, -57.822596961125015]}}, {"type": "Feature", "properties": {"norad_id": 34010, "name": "COSMOS 2251 DEB", "group": "cosmos-2251-debris", "lat": 73.81872829462843, "lon": -6.8457700678259075, "alt_km": 492.71184882029956, "timestamp": "2025-12-26T08:37:54.973057+00:00", "meta": {"OBJECT_NAME": "COSMOS 2251 DEB", "OBJECT_ID": "1993-036GV", "EPOCH": "2025-12-26T03:29:31.386624", "MEAN_MOTION": 15.20965145, "ECCENTRICITY": 0.0004861, "INCLINATION": 73.996, "RA_OF_ASC_NODE": 255.153, "ARG_OF_PERICENTER": 56.4406, "MEAN_ANOMALY": 303.7255, "EPHEMERIS_TYPE": 0, "CLASSIFICATION_TYPE": "U", "NORAD_CAT_ID": 34010, "ELEMENT_SET_NO": 999, "REV_AT_EPOCH": 89489, "BSTAR": 0.0037296, "MEAN_MOTION_DOT": 0.00083596, "MEAN_MOTION_DDOT": 0}, "tle": {"line1": "1 34010U 93036GV  25360.14550216  .00083596  00000+0  37296-2 0  9998", "line2": "2 34010  73.9960 255.1530 0004861  56.4406 303.7255 15.20965145894890"}}, "geometry": {"type": "Point", "coordinates": [-6.8457700678259075, 73.81872829462843]}}, {"type": "Feature", "properties": {"norad_id": 34011, "name": "COSMOS 2251 DEB", "group": "cosmos-2251-debris", "lat": 3.581521113810015, "lon": -54.09758117100117, "alt_km": 730.3544411892917, "timestamp": "2025-12-26T08:37:54.973067+00:00", "meta": {"OBJECT_NAME": "COSMOS 2251 DEB", "OBJECT_ID": "1993-036GW", "EPOCH": "2025-12-25T22:37:24.684384", "MEAN_MOTION": 14.41831261, "ECCENTRICITY": 0.0036363, "INCLINATION": 74.0146, "RA_OF_ASC_NODE": 305.6479, "ARG_OF_PERICENTER": 25.6657, "MEAN_ANOMALY": 334.6293, "EPHEMERIS_TYPE": 0, "CLASSIFICATION_TYPE": "U", "NORAD_CAT_ID": 34011, "ELEMENT_SET_NO": 999, "REV_AT_EPOCH": 88106, "BSTAR": 0.000796, "MEAN_MOTION_DOT": 2.597e-05, "MEAN_MOTION_DDOT": 0}, "tle": {"line1": "1 34011U 93036GW  25359.94264681  .00002597  00000+0  79600-3 0  9991", "line2": "2 34011  74.0146 305.6479 0036363  25.6657 334.6293 14.41831261881063"}}, "geometry": {"type": "Point", "coordinates": [-54.09758117100117, 3.581521113810015]}}]}